CCSDS_OMM_VERS = 2.0
CREATION_DATE  = 
ORIGINATOR     = 

OBJECT_NAME    = SL-3 R/B
OBJECT_ID      = 1982-079B
CENTER_NAME    = EARTH
REF_FRAME      = TEME
TIME_SYSTEM    = UTC
MEAN_ELEMENT_THEORY = SGP/SGP4

EPOCH          = 2026-01-09T15:43:16.384800
MEAN_MOTION    = 15.23981764
ECCENTRICITY   = .00257579
INCLINATION    = 81.1458
RA_OF_ASC_NODE = 262.7494
ARG_OF_PERICENTER = 8.7177
MEAN_ANOMALY   = 351.4498

EPHEMERIS_TYPE = 0
CLASSIFICATION_TYPE = U
NORAD_CAT_ID   = 13403
ELEMENT_SET_NO = 999
REV_AT_EPOCH   = 36870
BSTAR          = .24735528E-3
MEAN_MOTION_DOT = .6068E-4
MEAN_MOTION_DDOT = 0

CCSDS_OMM_VERS = 2.0
CREATION_DATE  = 
ORIGINATOR     = 

OBJECT_NAME    = SL-14 R/B
OBJECT_ID      = 1982-092B
CENTER_NAME    = EARTH
REF_FRAME      = TEME
TIME_SYSTEM    = UTC
MEAN_ELEMENT_THEORY = SGP/SGP4

EPOCH          = 2026-01-09T14:46:19.645824
MEAN_MOTION    = 14.86589225
ECCENTRICITY   = .00214001
INCLINATION    = 82.5668
RA_OF_ASC_NODE = 196.6402
ARG_OF_PERICENTER = 134.3177
MEAN_ANOMALY   = 292.4678

EPHEMERIS_TYPE = 0
CLASSIFICATION_TYPE = U
NORAD_CAT_ID   = 13553
ELEMENT_SET_NO = 999
REV_AT_EPOCH   = 32015
BSTAR          = .62847634E-4
MEAN_MOTION_DOT = .584E-5
MEAN_MOTION_DDOT = 0

CCSDS_OMM_VERS = 2.0
CREATION_DATE  = 
ORIGINATOR     = 

OBJECT_NAME    = SL-3 R/B
OBJECT_ID      = 1983-010B
CENTER_NAME    = EARTH
REF_FRAME      = TEME
TIME_SYSTEM    = UTC
MEAN_ELEMENT_THEORY = SGP/SGP4

EPOCH          = 2026-01-09T15:23:36.343968
MEAN_MOTION    = 15.44354584
ECCENTRICITY   = .0016178
INCLINATION    = 81.1034
RA_OF_ASC_NODE = 74.5393
ARG_OF_PERICENTER = 250.4803
MEAN_ANOMALY   = 109.4693

EPHEMERIS_TYPE = 0
CLASSIFICATION_TYPE = U
NORAD_CAT_ID   = 13819
ELEMENT_SET_NO = 999
REV_AT_EPOCH   = 34882
BSTAR          = .29250843E-3
MEAN_MOTION_DOT = .13591E-3
MEAN_MOTION_DDOT = 0

CCSDS_OMM_VERS = 2.0
CREATION_DATE  = 
ORIGINATOR     = 

OBJECT_NAME    = SL-3 R/B
OBJECT_ID      = 1983-075B
CENTER_NAME    = EARTH
REF_FRAME      = TEME
TIME_SYSTEM    = UTC
MEAN_ELEMENT_THEORY = SGP/SGP4

EPOCH          = 2026-01-09T17:26:35.502720
MEAN_MOTION    = 15.36825242
ECCENTRICITY   = .00245221
INCLINATION    = 97.6120
RA_OF_ASC_NODE = 12.1639
ARG_OF_PERICENTER = 81.5086
MEAN_ANOMALY   = 278.8936

EPHEMERIS_TYPE = 0
CLASSIFICATION_TYPE = U
NORAD_CAT_ID   = 14208
ELEMENT_SET_NO = 999
REV_AT_EPOCH   = 32109
BSTAR          = .29462749E-3
MEAN_MOTION_DOT = .10626E-3
MEAN_MOTION_DDOT = 0

CCSDS_OMM_VERS = 2.0
CREATION_DATE  = 
ORIGINATOR     = 

OBJECT_NAME    = COSMOS 1536
OBJECT_ID      = 1984-013A
CENTER_NAME    = EARTH
REF_FRAME      = TEME
TIME_SYSTEM    = UTC
MEAN_ELEMENT_THEORY = SGP/SGP4

EPOCH          = 2026-01-09T11:19:58.449792
MEAN_MOTION    = 15.22947827
ECCENTRICITY   = .00154474
INCLINATION    = 82.5457
RA_OF_ASC_NODE = 166.6534
ARG_OF_PERICENTER = 127.9386
MEAN_ANOMALY   = 232.3249

EPHEMERIS_TYPE = 0
CLASSIFICATION_TYPE = U
NORAD_CAT_ID   = 14699
ELEMENT_SET_NO = 999
REV_AT_EPOCH   = 26360
BSTAR          = .31877117E-3
MEAN_MOTION_DOT = .7539E-4
MEAN_MOTION_DDOT = 0

CCSDS_OMM_VERS = 2.0
CREATION_DATE  = 
ORIGINATOR     = 

OBJECT_NAME    = SL-14 R/B
OBJECT_ID      = 1984-027B
CENTER_NAME    = EARTH
REF_FRAME      = TEME
TIME_SYSTEM    = UTC
MEAN_ELEMENT_THEORY = SGP/SGP4

EPOCH          = 2026-01-09T07:12:18.383328
MEAN_MOTION    = 14.85910484
ECCENTRICITY   = .00182576
INCLINATION    = 82.5432
RA_OF_ASC_NODE = 300.7125
ARG_OF_PERICENTER = 165.2475
MEAN_ANOMALY   = 194.9279

EPHEMERIS_TYPE = 0
CLASSIFICATION_TYPE = U
NORAD_CAT_ID   = 14820
ELEMENT_SET_NO = 999
REV_AT_EPOCH   = 23881
BSTAR          = .63788502E-4
MEAN_MOTION_DOT = .582E-5
MEAN_MOTION_DDOT = 0

CCSDS_OMM_VERS = 2.0
CREATION_DATE  = 
ORIGINATOR     = 

OBJECT_NAME    = SL-8 R/B
OBJECT_ID      = 1985-006B
CENTER_NAME    = EARTH
REF_FRAME      = TEME
TIME_SYSTEM    = UTC
MEAN_ELEMENT_THEORY = SGP/SGP4

EPOCH          = 2026-01-09T10:54:35.230752
MEAN_MOTION    = 14.37742783
ECCENTRICITY   = .0019696
INCLINATION    = 74.0460
RA_OF_ASC_NODE = 10.1402
ARG_OF_PERICENTER = 297.5014
MEAN_ANOMALY   = 173.0391

EPHEMERIS_TYPE = 0
CLASSIFICATION_TYPE = U
NORAD_CAT_ID   = 15483
ELEMENT_SET_NO = 999
REV_AT_EPOCH   = 14551
BSTAR          = .11852555E-3
MEAN_MOTION_DOT = .331E-5
MEAN_MOTION_DDOT = 0

CCSDS_OMM_VERS = 2.0
CREATION_DATE  = 
ORIGINATOR     = 

OBJECT_NAME    = SL-12 R/B(2)
OBJECT_ID      = 1985-042D
CENTER_NAME    = EARTH
REF_FRAME      = TEME
TIME_SYSTEM    = UTC
MEAN_ELEMENT_THEORY = SGP/SGP4

EPOCH          = 2026-01-09T16:10:38.811648
MEAN_MOTION    = 14.21961096
ECCENTRICITY   = .00366815
INCLINATION    = 71.1065
RA_OF_ASC_NODE = 212.4066
ARG_OF_PERICENTER = 220.3381
MEAN_ANOMALY   = 202.6581

EPHEMERIS_TYPE = 0
CLASSIFICATION_TYPE = U
NORAD_CAT_ID   = 15772
ELEMENT_SET_NO = 999
REV_AT_EPOCH   = 10600
BSTAR          = .84281873E-4
MEAN_MOTION_DOT = .14E-5
MEAN_MOTION_DDOT = 0

CCSDS_OMM_VERS = 2.0
CREATION_DATE  = 
ORIGINATOR     = 

OBJECT_NAME    = SL-14 R/B
OBJECT_ID      = 1985-069B
CENTER_NAME    = EARTH
REF_FRAME      = TEME
TIME_SYSTEM    = UTC
MEAN_ELEMENT_THEORY = SGP/SGP4

EPOCH          = 2026-01-09T15:21:05.872320
MEAN_MOTION    = 14.86360970
ECCENTRICITY   = .00195624
INCLINATION    = 82.5264
RA_OF_ASC_NODE = 80.4736
ARG_OF_PERICENTER = 32.1767
MEAN_ANOMALY   = 328.0639

EPHEMERIS_TYPE = 0
CLASSIFICATION_TYPE = U
NORAD_CAT_ID   = 15945
ELEMENT_SET_NO = 999
REV_AT_EPOCH   = 16406
BSTAR          = .53405724E-4
MEAN_MOTION_DOT = .497E-5
MEAN_MOTION_DDOT = 0

CCSDS_OMM_VERS = 2.0
CREATION_DATE  = 
ORIGINATOR     = 

OBJECT_NAME    = SL-16 R/B
OBJECT_ID      = 1985-097B
CENTER_NAME    = EARTH
REF_FRAME      = TEME
TIME_SYSTEM    = UTC
MEAN_ELEMENT_THEORY = SGP/SGP4

EPOCH          = 2026-01-09T11:34:00.804000
MEAN_MOTION    = 14.16591023
ECCENTRICITY   = .00083459
INCLINATION    = 71.0029
RA_OF_ASC_NODE = 265.2001
ARG_OF_PERICENTER = 331.2030
MEAN_ANOMALY   = 202.2527

EPHEMERIS_TYPE = 0
CLASSIFICATION_TYPE = U
NORAD_CAT_ID   = 16182
ELEMENT_SET_NO = 999
REV_AT_EPOCH   = 7884
BSTAR          = .14288966E-3
MEAN_MOTION_DOT = .237E-5
MEAN_MOTION_DDOT = 0

CCSDS_OMM_VERS = 2.0
CREATION_DATE  = 
ORIGINATOR     = 

OBJECT_NAME    = SL-14 R/B
OBJECT_ID      = 1986-006B
CENTER_NAME    = EARTH
REF_FRAME      = TEME
TIME_SYSTEM    = UTC
MEAN_ELEMENT_THEORY = SGP/SGP4

EPOCH          = 2026-01-09T08:42:05.239296
MEAN_MOTION    = 14.86715048
ECCENTRICITY   = .0078204
INCLINATION    = 82.5286
RA_OF_ASC_NODE = 315.5618
ARG_OF_PERICENTER = 108.9534
MEAN_ANOMALY   = 252.0180

EPHEMERIS_TYPE = 0
CLASSIFICATION_TYPE = U
NORAD_CAT_ID   = 16496
ELEMENT_SET_NO = 999
REV_AT_EPOCH   = 14039
BSTAR          = .80437995E-4
MEAN_MOTION_DOT = .784E-5
MEAN_MOTION_DDOT = 0

CCSDS_OMM_VERS = 2.0
CREATION_DATE  = 
ORIGINATOR     = 

OBJECT_NAME    = COSMOS 1743
OBJECT_ID      = 1986-034A
CENTER_NAME    = EARTH
REF_FRAME      = TEME
TIME_SYSTEM    = UTC
MEAN_ELEMENT_THEORY = SGP/SGP4

EPOCH          = 2026-01-09T10:11:46.303872
MEAN_MOTION    = 15.54091534
ECCENTRICITY   = .00051926
INCLINATION    = 82.5354
RA_OF_ASC_NODE = 135.7984
ARG_OF_PERICENTER = 146.4853
MEAN_ANOMALY   = 213.6730

EPHEMERIS_TYPE = 0
CLASSIFICATION_TYPE = U
NORAD_CAT_ID   = 16719
ELEMENT_SET_NO = 999
REV_AT_EPOCH   = 17103
BSTAR          = .59564567E-3
MEAN_MOTION_DOT = .388E-3
MEAN_MOTION_DDOT = 0

