SL-3 R/B                
1 13403U 82079B   26009.65505075  .00006068  00000+0  24736-3 0  9991
2 13403  81.1458 262.7494 0025757   8.7177 351.4498 15.23981764368704
SL-14 R/B               
1 13553U 82092B   26009.61550516  .00000584  00000+0  62848-4 0  9992
2 13553  82.5668 196.6402 0021400 134.3177 292.4678 14.86589225320154
SL-3 R/B                
1 13819U 83010B   26009.64139287  .00013591  00000+0  29251-3 0  9991
2 13819  81.1034  74.5393 0016178 250.4803 109.4693 15.44354584348827
SL-3 R/B                
1 14208U 83075B   26009.72679980  .00010626  00000+0  29463-3 0  9994
2 14208  97.6120  12.1639 0024522  81.5086 278.8936 15.36825242321093
COSMOS 1536             
1 14699U 84013A   26009.47220428  .00007539  00000+0  31877-3 0  9993
2 14699  82.5457 166.6534 0015447 127.9386 232.3249 15.22947827263609
SL-14 R/B               
1 14820U 84027B   26009.30021277  .00000582  00000+0  63789-4 0  9996
2 14820  82.5432 300.7125 0018257 165.2475 194.9279 14.85910484238819
SL-8 R/B                
1 15483U 85006B   26009.45457443  .00000331  00000+0  11853-3 0  9990
2 15483  74.0460  10.1402 0019696 297.5014 173.0391 14.37742783145517
SL-12 R/B(2)            
1 15772U 85042D   26009.67406032  .00000140  00000+0  84282-4 0  9998
2 15772  71.1065 212.4066 0036681 220.3381 202.6581 14.21961096106008
SL-14 R/B               
1 15945U 85069B   26009.63965130  .00000497  00000+0  53406-4 0  9993
2 15945  82.5264  80.4736 0019562  32.1767 328.0639 14.86360970164062
SL-16 R/B               
1 16182U 85097B   26009.48195375  .00000237  00000+0  14289-3 0  9994
2 16182  71.0029 265.2001 0008345 331.2030 202.2527 14.16591023 78846
SL-14 R/B               
1 16496U 86006B   26009.36256064  .00000784  00000+0  80438-4 0  9990
2 16496  82.5286 315.5618 0078204 108.9534 252.0180 14.86715048140398
COSMOS 1743             
1 16719U 86034A   26009.42484148  .00038800  00000+0  59565-3 0  9998
2 16719  82.5354 135.7984 0005192 146.4853 213.6730 15.54091534171039
